TRANSPORTER-12 OBJECT AZ
1 62656U 25009AZ  26068.71026235  .00016057  00000+0  54903-3 0  9991
2 62656  97.3981 151.9913 0000987  45.3581 314.7740 15.30349724 63792
STARLINK-35900          
1 66886U 25283J   26068.17543655  .00029525  00000+0  10055-2 0  9997
2 66886  53.1612  26.6843 0001219  73.9111 286.2024 15.30183452 15763
